start=new Date('2022-02-07T00:00:00.000Z').valueOf();
sats=[{"MEAN_MOTION_DOT":"0.00000110","SITE":"AFETR","OBJECT_NAME":"STARLINK-1994","FILE":"3293822","RA_OF_ASC_NODE":"238.6591","RCS_SIZE":"LARGE","ECCENTRICITY":"0.00018000","ARG_OF_PERICENTER":"74.7199","PERIOD":"95.593","COUNTRY_CODE":"US","TLE_LINE1":"1 47589U 21009AT  22037.87124069  .00000110  00000-0  26326-4 0  9991","REV_AT_EPOCH":"5594","MEAN_MOTION_DDOT":"0.0000000000000","TLE_LINE2":"2 47589  53.0551 238.6591 0001800  74.7199 285.3988 15.06390492 55949","EPOCH":"2022-02-06T20:54:35.195616","EPHEMERIS_TYPE":"0","APOAPSIS":"548.489","OBJECT_TYPE":"PAYLOAD","MEAN_MOTION":"15.06390492","LAUNCH_DATE":"2021-02-04","BSTAR":"0.00002632600000","INCLINATION":"53.0551","DECAY_DATE":null,"OBJECT_ID":"2021-009AT","CENTER_NAME":"EARTH","MEAN_ELEMENT_THEORY":"SGP4","PERIAPSIS":"545.996","TIME_SYSTEM":"UTC","ELEMENT_SET_NO":"999","MEAN_ANOMALY":"285.3988","CLASSIFICATION_TYPE":"U","REF_FRAME":"TEME","GP_ID":"195442241","SEMIMAJOR_AXIS":"6925.378","NORAD_CAT_ID":"47589"},{"ECCENTRICITY":"0.00018950","FILE":"3293822","MEAN_MOTION_DOT":"-0.00003863","SITE":"AFETR","OBJECT_NAME":"STARLINK-1995","RCS_SIZE":"LARGE","RA_OF_ASC_NODE":"258.3981","APOAPSIS":"548.591","EPOCH":"2022-02-06T22:16:52.106304","TLE_LINE2":"2 47590  53.0541 258.3981 0001895  61.8373 298.2808 15.06378919 55671","EPHEMERIS_TYPE":"0","OBJECT_TYPE":"PAYLOAD","PERIOD":"95.593","ARG_OF_PERICENTER":"61.8373","REV_AT_EPOCH":"5567","MEAN_MOTION_DDOT":"0.0000000000000","TLE_LINE1":"1 47590U 21009AU  22037.92838086 -.00003863  00000-0 -24069-3 0  9991","COUNTRY_CODE":"US","OBJECT_ID":"2021-009AU","CENTER_NAME":"EARTH","MEAN_ELEMENT_THEORY":"SGP4","DECAY_DATE":null,"MEAN_MOTION":"15.06378919","INCLINATION":"53.0541","LAUNCH_DATE":"2021-02-04","BSTAR":"-0.00024069000000","SEMIMAJOR_AXIS":"6925.413","NORAD_CAT_ID":"47590","CLASSIFICATION_TYPE":"U","GP_ID":"195442491","REF_FRAME":"TEME","PERIAPSIS":"545.966","TIME_SYSTEM":"UTC","MEAN_ANOMALY":"298.2808","ELEMENT_SET_NO":"999"},{"CLASSIFICATION_TYPE":"U","REF_FRAME":"TEME","GP_ID":"195443243","SEMIMAJOR_AXIS":"6925.373","NORAD_CAT_ID":"47591","TIME_SYSTEM":"UTC","PERIAPSIS":"546.086","ELEMENT_SET_NO":"999","MEAN_ANOMALY":"282.5643","OBJECT_ID":"2021-009AV","CENTER_NAME":"EARTH","MEAN_ELEMENT_THEORY":"SGP4","MEAN_MOTION":"15.06392045","LAUNCH_DATE":"2021-02-04","INCLINATION":"53.0560","BSTAR":"-0.00005614300000","DECAY_DATE":null,"TLE_LINE2":"2 47591  53.0560 238.6704 0001663  77.5532 282.5643 15.06392045 55940","EPOCH":"2022-02-06T20:49:17.092416","EPHEMERIS_TYPE":"0","APOAPSIS":"548.390","OBJECT_TYPE":"PAYLOAD","ARG_OF_PERICENTER":"77.5532","PERIOD":"95.593","COUNTRY_CODE":"US","TLE_LINE1":"1 47591U 21009AV  22037.86755894 -.00001118  00000-0 -56143-4 0  9990","REV_AT_EPOCH":"5594","MEAN_MOTION_DDOT":"0.0000000000000","ECCENTRICITY":"0.00016630","SITE":"AFETR","MEAN_MOTION_DOT":"-0.00001118","OBJECT_NAME":"STARLINK-1996","FILE":"3293822","RA_OF_ASC_NODE":"238.6704","RCS_SIZE":"LARGE"},{"OBJECT_ID":"2021-009AW","MEAN_ELEMENT_THEORY":"SGP4","CENTER_NAME":"EARTH","DECAY_DATE":null,"LAUNCH_DATE":"2021-02-04","INCLINATION":"53.0524","BSTAR":"-0.00049992000000","MEAN_MOTION":"15.06373502","NORAD_CAT_ID":"47592","SEMIMAJOR_AXIS":"6925.430","GP_ID":"195443993","REF_FRAME":"TEME","CLASSIFICATION_TYPE":"U","MEAN_ANOMALY":"289.7651","ELEMENT_SET_NO":"999","PERIAPSIS":"546.211","TIME_SYSTEM":"UTC","ECCENTRICITY":"0.00015650","RCS_SIZE":"LARGE","RA_OF_ASC_NODE":"258.5397","FILE":"3293822","OBJECT_NAME":"STARLINK-1997","SITE":"AFETR","MEAN_MOTION_DOT":"-0.00007715","OBJECT_TYPE":"PAYLOAD","APOAPSIS":"548.379","EPHEMERIS_TYPE":"0","EPOCH":"2022-02-06T21:34:22.933056","TLE_LINE2":"2 47592  53.0524 258.5397 0001565  70.3507 289.7651 15.06373502 55668","MEAN_MOTION_DDOT":"0.0000000000000","REV_AT_EPOCH":"5566","COUNTRY_CODE":"US","TLE_LINE1":"1 47592U 21009AW  22037.89887654 -.00007715  00000-0 -49992-3 0  9996","ARG_OF_PERICENTER":"70.3507","PERIOD":"95.594"},{"MEAN_ANOMALY":"308.3816","ELEMENT_SET_NO":"999","TIME_SYSTEM":"UTC","PERIAPSIS":"545.727","SEMIMAJOR_AXIS":"6925.360","NORAD_CAT_ID":"47593","CLASSIFICATION_TYPE":"U","GP_ID":"195442741","REF_FRAME":"TEME","DECAY_DATE":null,"MEAN_MOTION":"15.06396298","INCLINATION":"53.0525","LAUNCH_DATE":"2021-02-04","BSTAR":"-0.00000622380000","OBJECT_ID":"2021-009AX","CENTER_NAME":"EARTH","MEAN_ELEMENT_THEORY":"SGP4","REV_AT_EPOCH":"5566","MEAN_MOTION_DDOT":"0.0000000000000","COUNTRY_CODE":"US","TLE_LINE1":"1 47593U 21009AX  22037.86939815 -.00000374  00000-0 -62238-5 0  9995","ARG_OF_PERICENTER":"51.7367","PERIOD":"95.592","OBJECT_TYPE":"PAYLOAD","APOAPSIS":"548.723","EPOCH":"2022-02-06T20:51:56.000160","TLE_LINE2":"2 47593  53.0525 258.6610 0002163  51.7367 308.3816 15.06396298 55669","EPHEMERIS_TYPE":"0","RCS_SIZE":"LARGE","RA_OF_ASC_NODE":"258.6610","FILE":"3293822","OBJECT_NAME":"STARLINK-1998","SITE":"AFETR","MEAN_MOTION_DOT":"-0.00000374","ECCENTRICITY":"0.00021630"},{"DECAY_DATE":null,"MEAN_MOTION":"15.06375592","LAUNCH_DATE":"2021-02-04","INCLINATION":"53.0543","BSTAR":"-0.00004338100000","CENTER_NAME":"EARTH","OBJECT_ID":"2021-009AY","MEAN_ELEMENT_THEORY":"SGP4","TIME_SYSTEM":"UTC","PERIAPSIS":"546.205","MEAN_ANOMALY":"297.9686","ELEMENT_SET_NO":"999","SEMIMAJOR_AXIS":"6925.423","NORAD_CAT_ID":"47594","CLASSIFICATION_TYPE":"U","GP_ID":"195442991","REF_FRAME":"TEME","FILE":"3293822","OBJECT_NAME":"STARLINK-1999","SITE":"AFETR","MEAN_MOTION_DOT":"-0.00000927","RCS_SIZE":"LARGE","RA_OF_ASC_NODE":"258.5229","ECCENTRICITY":"0.00015650","PERIOD":"95.594","ARG_OF_PERICENTER":"62.1461","REV_AT_EPOCH":"5566","MEAN_MOTION_DDOT":"0.0000000000000","COUNTRY_CODE":"US","TLE_LINE1":"1 47594U 21009AY  22037.90257995 -.00000927  00000-0 -43381-4 0  9994","APOAPSIS":"548.372","EPOCH":"2022-02-06T21:39:42.907680","TLE_LINE2":"2 47594  53.0543 258.5229 0001565  62.1461 297.9686 15.06375592 55663","EPHEMERIS_TYPE":"0","OBJECT_TYPE":"PAYLOAD"},{"DECAY_DATE":null,"INCLINATION":"53.0523","LAUNCH_DATE":"2021-02-04","BSTAR":"-0.00002472300000","MEAN_MOTION":"15.06389130","CENTER_NAME":"EARTH","OBJECT_ID":"2021-009AZ","MEAN_ELEMENT_THEORY":"SGP4","PERIAPSIS":"546.222","TIME_SYSTEM":"UTC","MEAN_ANOMALY":"295.8649","ELEMENT_SET_NO":"999","NORAD_CAT_ID":"47595","SEMIMAJOR_AXIS":"6925.382","GP_ID":"195443743","REF_FRAME":"TEME","CLASSIFICATION_TYPE":"U","FILE":"3293822","SITE":"AFETR","OBJECT_NAME":"STARLINK-2000","MEAN_MOTION_DOT":"-0.00000650","RCS_SIZE":"LARGE","RA_OF_ASC_NODE":"258.5899","ECCENTRICITY":"0.00014800","PERIOD":"95.593","ARG_OF_PERICENTER":"64.2493","MEAN_MOTION_DDOT":"0.0000000000000","REV_AT_EPOCH":"5566","COUNTRY_CODE":"US","TLE_LINE1":"1 47595U 21009AZ  22037.88783980 -.00000650  00000-0 -24723-4 0  9992","APOAPSIS":"548.272","EPHEMERIS_TYPE":"0","EPOCH":"2022-02-06T21:18:29.358720","TLE_LINE2":"2 47595  53.0523 258.5899 0001480  64.2493 295.8649 15.06389130 55668","OBJECT_TYPE":"PAYLOAD"},{"MEAN_ELEMENT_THEORY":"SGP4","OBJECT_ID":"2021-009BA","CENTER_NAME":"EARTH","DECAY_DATE":null,"LAUNCH_DATE":"2021-02-04","INCLINATION":"53.0520","BSTAR":"-0.00027070000000","MEAN_MOTION":"15.06389061","NORAD_CAT_ID":"47596","SEMIMAJOR_AXIS":"6925.382","REF_FRAME":"TEME","GP_ID":"195443494","CLASSIFICATION_TYPE":"U","PERIAPSIS":"546.097","TIME_SYSTEM":"UTC","MEAN_ANOMALY":"297.0609","ELEMENT_SET_NO":"999","ECCENTRICITY":"0.00016610","FILE":"3293822","MEAN_MOTION_DOT":"-0.00004310","SITE":"AFETR","OBJECT_NAME":"STARLINK-2001","RCS_SIZE":"LARGE","RA_OF_ASC_NODE":"258.5702","APOAPSIS":"548.397","EPHEMERIS_TYPE":"0","EPOCH":"2022-02-06T21:23:47.372928","TLE_LINE2":"2 47596  53.0520 258.5702 0001661  63.0549 297.0609 15.06389061 55662","OBJECT_TYPE":"PAYLOAD","ARG_OF_PERICENTER":"63.0549","PERIOD":"95.593","MEAN_MOTION_DDOT":"0.0000000000000","REV_AT_EPOCH":"5566","COUNTRY_CODE":"US","TLE_LINE1":"1 47596U 21009BA  22037.89152052 -.00004310  00000-0 -27070-3 0  9998"},{"EPHEMERIS_TYPE":"0","TLE_LINE2":"2 47597  53.0533 258.6051 0001735  76.6663 283.4519 15.06383162 55669","EPOCH":"2022-02-06T21:13:10.502112","APOAPSIS":"548.467","OBJECT_TYPE":"PAYLOAD","PERIOD":"95.593","ARG_OF_PERICENTER":"76.6663","TLE_LINE1":"1 47597U 21009BB  22037.88414933 -.00002082  00000-0 -12097-3 0  9994","COUNTRY_CODE":"US","MEAN_MOTION_DDOT":"0.0000000000000","REV_AT_EPOCH":"5566","ECCENTRICITY":"0.00017350","SITE":"AFETR","OBJECT_NAME":"STARLINK-2002","MEAN_MOTION_DOT":"-0.00002082","FILE":"3293822","RA_OF_ASC_NODE":"258.6051","RCS_SIZE":"LARGE","GP_ID":"195442242","REF_FRAME":"TEME","CLASSIFICATION_TYPE":"U","NORAD_CAT_ID":"47597","SEMIMAJOR_AXIS":"6925.400","TIME_SYSTEM":"UTC","PERIAPSIS":"546.064","ELEMENT_SET_NO":"999","MEAN_ANOMALY":"283.4519","OBJECT_ID":"2021-009BB","MEAN_ELEMENT_THEORY":"SGP4","CENTER_NAME":"EARTH","INCLINATION":"53.0533","LAUNCH_DATE":"2021-02-04","BSTAR":"-0.00012097000000","MEAN_MOTION":"15.06383162","DECAY_DATE":null},{"CLASSIFICATION_TYPE":"U","GP_ID":"195442492","REF_FRAME":"TEME","SEMIMAJOR_AXIS":"6925.372","NORAD_CAT_ID":"47598","PERIAPSIS":"546.074","TIME_SYSTEM":"UTC","ELEMENT_SET_NO":"999","MEAN_ANOMALY":"285.2374","OBJECT_ID":"2021-009BC","CENTER_NAME":"EARTH","MEAN_ELEMENT_THEORY":"SGP4","MEAN_MOTION":"15.06392405","LAUNCH_DATE":"2021-02-04","BSTAR":"0.00001148700000","INCLINATION":"53.0545","DECAY_DATE":null,"EPOCH":"2022-02-06T19:52:13.251360","TLE_LINE2":"2 47598  53.0545 228.8526 0001679  74.8800 285.2374 15.06392405 56085","EPHEMERIS_TYPE":"0","APOAPSIS":"548.400","OBJECT_TYPE":"PAYLOAD","ARG_OF_PERICENTER":"74.8800","PERIOD":"95.593","COUNTRY_CODE":"US","TLE_LINE1":"1 47598U 21009BC  22037.82793115 -.00000110  00000-0  11487-4 0  9993","REV_AT_EPOCH":"5608","MEAN_MOTION_DDOT":"0.0000000000000","ECCENTRICITY":"0.00016790","SITE":"AFETR","MEAN_MOTION_DOT":"-0.00000110","OBJECT_NAME":"STARLINK-2003","FILE":"3293822","RA_OF_ASC_NODE":"228.8526","RCS_SIZE":"LARGE"}];
